HAWK-7B                 
1 56193U 23054R   26068.68903567  .00007955  00000+0  31011-3 0  9998
2 56193  97.2859 316.7839 0003661  61.5878 298.5730 15.26206341161848
STARLINK-36454          
1 67470U 26008AB  26068.42370959  .00028167  00000+0  10285-2 0  9992
2 67470  43.0057 206.5280 0005220 293.9378  66.0927 15.27592972  9534
